GOES 1 (SMS-C) [-]      
1 08366U 75100A   19283.38961318 -.00000233  00000-0  00000+0 0  9996
2 08366  10.4957 308.1416 0004309 312.4677 172.4086  1.00299997160720
GOES 2 [-]              
1 10061U 77048A   19283.15753944 -.00000096  00000-0  00000+0 0  9990
2 10061  11.9005 317.9515 0016106 347.5563  42.4630  0.99394698 99244
GOES 3 [-]              
1 10953U 78062A   19283.14581532 -.00000037  00000-0  00000+0 0  9993
2 10953  12.1310 321.8406 0002638 345.8759  25.7319  0.99358213104330
GOES 4 [-]              
1 11964U 80074A   19282.97122709  .00000038  00000-0  00000+0 0  9999
2 11964  12.9949 325.5887 0033594  37.3160  78.8305  0.99226571103397
GOES 5 [-]              
1 12472U 81049A   19283.14921753 -.00000254  00000-0  00000+0 0  9994
2 12472  13.4700 336.1530 0003591 301.5016  74.0021  1.00323135 98478
GOES 6 [-]              
1 14050U 83041A   19283.14843240 -.00000236  00000-0  00000+0 0  9996
2 14050  13.8422 341.1746 0000707 328.4485  37.6632  1.00312051191579
GOES 7 [-]              
1 17561U 87022A   19282.61611903 -.00000370  00000-0  00000+0 0  9998
2 17561  14.9281 357.2938 0006068 346.9002  21.5983  0.99902562102584
GOES 8 [-]              
1 23051U 94022A   19282.65176118 -.00000283  00000-0  00000+0 0  9998
2 23051  12.3046  31.5312 0005354 289.4436  86.9071  0.98908008 99963
GOES 9 [-]              
1 23581U 95025A   19282.86854979  .00000034  00000-0  00000+0 0  9994
2 23581  11.7939  31.3813 0002103  94.0553 276.3332  0.98797686 88622
GOES 10 [-]             
1 24786U 97019A   19283.44632723  .00000018  00000-0  00000+0 0  9995
2 24786  10.3141  36.8263 0027738 185.2370 354.0797  0.99123017 81859
GOES 11 [-]             
1 26352U 00022A   19283.47969417 -.00000116  00000-0  00000+0 0  9990
2 26352   6.6520  66.8327 0004401 184.7222 128.2353  0.99044785 70812
GOES 12 [-]             
1 26871U 01031A   19282.25827737 -.00000290  00000-0  00000+0 0  9993
2 26871   7.7983  54.3190 0007673 251.0593 296.4963  0.99139465 66513
GOES 13 [B]             
1 29155U 06018A   19283.48435743  .00000075  00000-0  00000+0 0  9999
2 29155   0.0690  75.6679 0008546 169.0888 141.7159  0.99991730 49033
GOES 14 [S]             
1 35491U 09033A   19283.49002698 -.00000106  00000-0  00000+0 0  9995
2 35491   0.2988 278.9010 0012670 298.8624 233.2505  1.00272938 37678
GOES 15 [+]             
1 36411U 10008A   19283.49268997  .00000042  00000-0  00000+0 0  9996
2 36411   0.3057 278.7410 0002977 243.1747 266.3680  1.00262976 35185
GOES 16 [+]             
1 41866U 16071A   19283.48068538 -.00000260  00000-0  00000+0 0  9993
2 41866   0.0204  16.3481 0000510 195.0564 265.2533  1.00272839 10629
GOES-S [+]              
1 43226U 18022A   19283.49693968  .00000086  00000-0  00000+0 0  9990
2 43226   0.0131  12.6370 0000271 154.4812 253.4012  1.00272354  5958
